#dP2023 11 13 18  0  0.00000000      96 __u+U IGS20 EXT  IAC
## 2288 151200.00000000   900.00000000 60261 0.7500000000000
+  116   C06C07C08C09C10C11C12C13C14C16C19C20C21C22C23C24C25
+        C26C27C28C29C30C32C33C34C35C36C37C38C39C40C41C42C43
+        C44C45C46E02E03E04E07E08E09E10E11E12E13E15E19E21E24
+        E25E26E27E30E31E33E34E36G01G02G03G04G05G06G07G08G09
+        G10G11G12G13G14G15G16G17G18G19G20G21G22G23G24G25G26
+        G27G28G29G30G31G32J02J03J04R01R02R03R04R05R07R08R09
+        R11R12R13R14R15R16R17R18R19R20R21R22R24R25  0  0  0
++        10  8  8 10  8  9  9  9  9 10  9  8  9  8  9  9  7
++         9 10  9  9  9  8  9  8  9  8  9 10  9  9  8  9  9
++        10  9  8  8  7  6  8  8  7  8  8  8  9  6  8  7  9
++        10  7  8  8 10  7  6  8  6  8  7  5  7  8  7  6  8
++         8  8  8  7  7  8  7  9  7  7  8  7 10  9  8  7  8
++         9  6  7  6  7  7 10 10  8  9  7  9  7  7  8  8  6
++         7 11  8  8  8  7  8  8 10 10  8  8  7  9  0  0  0
%c M  cc GPS ccc cccc cccc cccc cccc ccccc ccccc ccccc ccccc
%c cc cc ccc ccc cccc cccc cccc cccc ccccc ccccc ccccc ccccc
%f  0.0000000  0.000000000  0.00000000000  0.000000000000000
%f  0.0000000  0.000000000  0.00000000000  0.000000000000000
%i    0    0    0    0      0      0      0      0         0
%i    0    0    0    0      0      0      0      0         0
/* IAC                                ULTRA-RAPID PREDICTION
/* S/V CLOCKS ARE ALIGNED TO GNSS TIME                      
/* G:C1WC2W R:C1PC2P E:C1XC5X C:C2IC6I J:C1CC2S             
/* PCV:IGS20_2280 OL/AL:FES2004  NONE     YN ORB:CoN CLK:CoN
*  2023 11 14  8 15  0.00000000
PC06 -13504.686381  24220.468729  31706.281034     22.490261
PC07 -12521.626681  40373.129066    590.870575   -316.023604
PC08   1520.520066  29290.936120 -30204.771600    241.298205
PC09  -2867.553153  24730.193064  34412.086781    -87.104415
PC10  -6108.245802  41428.285310  -6656.252950    -16.559904
PC11  26006.954940 -10073.530684    620.440023    255.143633
PC12  22339.486039   3085.923777 -16383.244557    859.761767
PC13   6547.948458  32497.844688 -25723.818119    382.335814
PC14  15301.521333 -12084.166780  19953.054852    780.855002
PC16 -17570.080150  23208.460540  30633.490494   -174.739934
PC19 -12172.978656  21028.358570 -13721.166940   -969.877194
PC20 -15933.435874   3327.061276 -22666.663944    118.116198
PC21  10319.570630  18045.845164  18631.679785   -969.452460
PC22  -1257.420044  27651.299450   3607.550387   -225.940905
PC23  -3971.622165 -20217.345760 -18825.250221   -821.978255
PC24  23866.096591   6761.629994 -12771.185616    594.701561
PC25  13061.177674 -10383.920103 -22377.413284    255.285372
PC26  20733.167198  18319.738378   3468.353969   -205.993152
PC27 -15895.097279  -9380.415822  20913.440793    227.859245
PC28   1974.107418 -17245.428909  21858.473351    171.927208
PC29 -20903.683253  16194.717360  -8921.266342    201.133902
PC30 -25927.567582   4429.465269   9292.384800     -8.324986
PC32 -10407.007930 -18061.428235 -18543.402443   -534.799269
PC33  12114.037235 -20992.387976  13821.034332   -945.206059
PC34  26187.409333  -5498.913325  -7960.470568    303.024583
PC35  -1153.236047  17339.626369 -21834.761429    503.215722
PC36 -14063.811042   9360.636092  22231.376676   -135.189910
PC37 -19945.716158 -19094.493665  -4144.198046   -886.114702
PC38  -6398.076982  25449.815757 -32926.948002    117.593701
PC39 -21356.187363  23315.380712  27815.307611     -5.675131
PC40 -18994.112390  37694.197530   2918.355008    -43.945071
PC41   1673.729097 -27708.422429  -2801.536009   -871.380353
PC42  15919.850832  -1503.558525  22904.762151   -499.712787
PC43  21511.589281 -15851.816478   8072.930194     48.171085
PC44  16154.752860   9016.829635 -20908.446484    292.294784
PC45   4539.679696  20295.870947  18588.465720    -45.949376
PC46 -23601.879051  -5960.822157  13677.352196    -99.653337
PE02 -12809.401325  12494.491159  23573.968837     78.307478
PE03 -21683.163860  19352.239469  -5642.198184    -73.372628
PE04   9570.842347 -24967.459544 -12701.989083   -257.136322
PE07   7846.543923  16197.809194  23496.826957    -87.713762
PE08 -10076.346015  24977.502253  12277.193006   -176.766331
PE09  -7649.351200 -16199.465993 -23567.701650   -227.145113
PE10  -8515.190347 -16573.804040  23001.316913   -578.745783
PE11 -19282.801210 -14731.201529  16942.998691   3202.477560
PE12   2494.859086 -15881.241916  24856.193356   -776.455952
PE13  18667.792587  14871.197872 -17498.531473    -19.604508
PE15  -3030.628196  15700.351359 -24898.866845    -69.077349
PE19  22404.285258 -17654.971204   7920.261279  -1218.477257
PE21  18577.601367   8281.775835 -21501.765224   -564.100471
PE24 -13495.551555 -25591.569870   6308.856937   -430.785289
PE25 -18599.158207  -8702.932582  21328.883917     -3.463661
PE26  29171.566515   4941.278182    707.708505    280.486873
PE27  13826.468604  25261.419370  -6810.535813   -199.495496
PE30    621.436948  27045.585829  11985.574807   -660.865080
PE31   -997.851157 -27169.458258 -11708.462083    -10.012792
PE33  23055.147987  -6977.592366  17201.671924      2.312244
PE34 -22629.279478   7366.227741 -17611.793740    -77.863978
PE36 -29109.517554  -5369.265348     -4.444650   -143.816191
PG01  16411.109071  14134.440291 -15946.548532    163.198437
PG02  11237.687354  14293.618764 -18927.124983   -529.163805
PG03  12116.644613  22927.115302   5850.998799    -15.236438
PG04   8360.776578  13049.505980  21562.696341    212.451998
PG05  -4853.719910 -25032.383957   7085.777230   -150.320874
PG06  19318.614916  -7361.850741  16801.837538    506.337242
PG07  26134.387229   5971.632735   1349.647208     13.879125
PG08    928.465010  19252.285837 -18171.513551   -152.031375
PG09  16585.405909   2583.406235  20509.385821     -3.409815
PG10 -13479.805625   5852.814818 -21924.576508    -61.333827
PG11   7771.644311 -13452.302441  21556.963811   -459.383048
PG12  -9709.698981 -24353.024617   4222.932534   -446.819102
PG13   9976.679604 -20791.634223 -13185.509711    595.106933
PG14  15527.393112  -2020.623614 -21442.716071    242.804232
PG15  -4121.273860 -19039.706567 -18446.893302     96.976602
PG16  -2252.296144  23451.879427  11481.443281   -422.340413
PG17  21304.098098 -10837.734881 -11279.242264    723.256617
PG18 -26220.013498  -4697.821682  -1119.568364   -478.633395
PG19  20735.140266 -15884.240630  -3833.187667    398.699726
PG20   3211.368773 -19846.886312  17495.989590    401.717515
PG21   8276.552211  14899.673125 -20090.763897    144.310257
PG22  12379.727725 -10115.079408 -20813.612490     84.210327
PG23 -16800.166621  -7838.704681 -19078.876405     98.673261
PG24 -12374.119244 -15031.507170 -18637.961461   -370.847821
PG25 -16306.553408 -15494.323641  14008.692280    477.319296
PG26  -7608.327968  17070.364741  18606.016904    216.754238
PG27 -11005.833714  22355.988556  -8815.840808    -69.708283
PG28 -20703.882598   7333.364807  14911.087384    -45.856112
PG29 -15885.686429  -4168.580187  20852.326343   -610.223579
PG30  25033.669414  -1855.916138  -8955.294862   -468.408176
PG31 -13612.047686  11372.267902  19691.041594   -225.720133
PG32 -20220.618246  14613.073683  -8616.007224   -585.513761
PJ02 -26313.190092  25273.542248  26328.951399     -0.165467
PJ03 -33200.914603  17586.842257 -14428.566838     -8.191064
PJ04 -21001.770940  32335.334656 -12091.330240     72.371860
PR01  12124.694961 -17624.890448  13885.868569     69.801140
PR02   6559.008421 -24453.816050  -3378.079680    -22.347809
PR03  -3437.187958 -17357.127665 -18363.210039     88.984051
PR04 -10970.306434   -859.415988 -22987.915481    211.009668
PR05 -12833.168887  15988.854825 -15149.585483    122.184046
PR07   3976.469882  16578.697302  18983.860398     69.074716
PR08  11192.175975    554.876174  22970.514358    -73.273128
PR09   4011.399415  17340.677356  18324.921177    153.145002
PR11  18944.062924  12009.350123 -12153.128627   -213.060867
PR12  10663.615119  -4449.410088 -22716.529409     33.397903
PR13  -2055.529060 -16087.003898 -19706.013187    -41.293565
PR14 -15786.296699 -19693.529812  -3622.283344     25.543878
PR15 -18718.682459 -11063.316422  13352.089910     84.780616
PR16 -10736.743858   4174.317663  22763.013796     20.594471
PR17 -11562.490593  -7624.942480  21446.167218     34.736396
PR18 -23419.561214    -94.178955  10077.651285    111.864722
PR19 -24222.548260   6226.119680  -5037.147373   -254.615304
PR20  -8842.705849  10996.546103 -21225.350200   -103.527387
PR21  12104.278999   7382.355886 -21188.748848    -53.280679
PR22  23864.552562    416.560155  -8979.474321     93.451543
PR24   7702.997666 -11770.729607  21296.572512    -32.088074
PR25  11230.006555   8394.701196 -21293.011961     -5.757358
EOF
